$$SOE
2460154.500000000, A.D. 2023-Jul-29 00:00:00.0000, 2.220978068332240E+08, 3.841724673329883E+08, -1.586762607220341E+07,
2460161.500000000, A.D. 2023-Aug-05 00:00:00.0000, 2.136962899756895E+08, 3.902126798711563E+08, -1.391494823387456E+07,
2460168.500000000, A.D. 2023-Aug-12 00:00:00.0000, 2.051773271128132E+08, 3.960380786408440E+08, -1.195460859035102E+07,
2460175.500000000, A.D. 2023-Aug-19 00:00:00.0000, 1.965464167836056E+08, 4.016470318032072E+08, -9.987734818680197E+06,
2460182.500000000, A.D. 2023-Aug-26 00:00:00.0000, 1.878090435551141E+08, 4.070380560956344E+08, -8.015442121629715E+06,
2460189.500000000, A.D. 2023-Sep-02 00:00:00.0000, 1.789706743536351E+08, 4.122098137442426E+08, -6.038832754943609E+06,
2460196.500000000, A.D. 2023-Sep-09 00:00:00.0000, 1.700367550090635E+08, 4.171611092205603E+08, -4.058995606210947E+06,
2460203.500000000, A.D. 2023-Sep-16 00:00:00.0000, 1.610127071763441E+08, 4.218908857950135E+08, -2.077005843953729E+06,
2460210.500000000, A.D. 2023-Sep-23 00:00:00.0000, 1.519039260459070E+08, 4.263982221846666E+08, -9.392465008518100E+04,
2460217.500000000, A.D. 2023-Sep-30 00:00:00.0000, 1.427157784997897E+08, 4.306823304960397E+08, 1.889201094264418E+06,
2460224.500000000, A.D. 2023-Oct-07 00:00:00.0000, 1.334535993554888E+08, 4.347425549268210E+08, 3.871339342730582E+06,
2460231.500000000, A.D. 2023-Oct-14 00:00:00.0000, 1.241226867303229E+08, 4.385783679196682E+08, 5.851473273359388E+06,
2460238.500000000, A.D. 2023-Oct-21 00:00:00.0000, 1.147282997498546E+08, 4.421893653805612E+08, 7.828601370509148E+06,
2460245.500000000, A.D. 2023-Oct-28 00:00:00.0000, 1.052756571725133E+08, 4.455752632276991E+08, 9.801737515866488E+06,
2460252.500000000, A.D. 2023-Nov-04 00:00:00.0000, 9.576993567405032E+07, 4.487358945035243E+08, 1.176991114195648E+07,
2460259.500000000, A.D. 2023-Nov-11 00:00:00.0000, 8.621626796155030E+07, 4.516712064541993E+08, 1.373216738458323E+07,
2460266.500000000, A.D. 2023-Nov-18 00:00:00.0000, 7.661974092888322E+07, 4.543812575180942E+08, 1.568756721056712E+07,
2460273.500000000, A.D. 2023-Nov-25 00:00:00.0000, 6.698539391993824E+07, 4.568662142525688E+08, 1.763518751770121E+07,
2460280.500000000, A.D. 2023-Dec-02 00:00:00.0000, 5.731821712264641E+07, 4.591263481941019E+08, 1.957412120511913E+07,
2460287.500000000, A.D. 2023-Dec-09 00:00:00.0000, 4.762315016709046E+07, 4.611620325975711E+08, 2.150347720365754E+07,
2460294.500000000, A.D. 2023-Dec-16 00:00:00.0000, 3.790508121043296E+07, 4.629737390704215E+08, 2.342238044221148E+07,
2460301.500000000, A.D. 2023-Dec-23 00:00:00.0000, 2.816884685168250E+07, 4.645620347918236E+08, 2.532997177546233E+07,
2460308.500000000, A.D. 2023-Dec-30 00:00:00.0000, 1.841923153097033E+07, 4.659275813685287E+08, 2.722540808258572E+07,
2460315.500000000, A.D. 2024-Jan-06 00:00:00.0000, 8.660964635620756E+06, 4.670711329663842E+08, 2.910786250730315E+07,
2460322.500000000, A.D. 2024-Jan-13 00:00:00.0000, -1.101281522354097E+06, 4.679935319107771E+08, 3.097652440152735E+07,
2460329.500000000, A.D. 2024-Jan-20 00:00:00.0000, -1.086289164054432E+07, 4.686957048454024E+08, 3.283059911350378E+07,
2460336.500000000, A.D. 2024-Jan-27 00:00:00.0000, -2.061930730507806E+07, 4.691786601046416E+08, 3.466930786065605E+07,
2460343.500000000, A.D. 2024-Feb-03 00:00:00.0000, -3.036602724717838E+07, 4.694434853518385E+08, 3.649188764972439E+07,
2460350.500000000, A.D. 2024-Feb-10 00:00:00.0000, -4.009860770484878E+07, 4.694913451932703E+08, 3.829759119582698E+07,
2460357.500000000, A.D. 2024-Feb-17 00:00:00.0000, -4.981266275561014E+07, 4.693234787765903E+08, 4.008568682920277E+07,
2460364.500000000, A.D. 2024-Feb-24 00:00:00.0000, -5.950386458879460E+07, 4.689411973890352E+08, 4.185545838833386E+07,
2460371.500000000, A.D. 2024-Mar-02 00:00:00.0000, -6.916794369240843E+07, 4.683458820230273E+08, 4.360620509484887E+07,
2460378.500000000, A.D. 2024-Mar-09 00:00:00.0000, -7.880068882009807E+07, 4.675389808461881E+08, 4.533724139305025E+07,
2460385.500000000, A.D. 2024-Mar-16 00:00:00.0000, -8.839794634736355E+07, 4.665220067728463E+08, 4.704789673465142E+07,
2460392.500000000, A.D. 2024-Mar-23 00:00:00.0000, -9.795561912508918E+07, 4.652965362465115E+08, 4.873751540962869E+07,
2460399.500000000, A.D. 2024-Mar-30 00:00:00.0000, -1.074696670748607E+08, 4.638642092072386E+08, 5.040545662727574E+07,
2460406.500000000, A.D. 2024-Apr-06 00:00:00.0000, -1.169361092724943E+08, 4.622267268740629E+08, 5.205109454915139E+07,
2460413.500000000, A.D. 2024-Apr-13 00:00:00.0000, -1.263510239736245E+08, 4.603858481765865E+08, 5.367381801713046E+07,
2460420.500000000, A.D. 2024-Apr-20 00:00:00.0000, -1.357105475381950E+08, 4.583433875137360E+08, 5.527303028351498E+07,
2460427.500000000, A.D. 2024-Apr-27 00:00:00.0000, -1.450108737734463E+08, 4.561012132785336E+08, 5.684814883709818E+07,
2460434.500000000, A.D. 2024-May-04 00:00:00.0000, -1.542482536102872E+08, 4.536612464442144E+08, 5.839860526015174E+07,
2460441.500000000, A.D. 2024-May-11 00:00:00.0000, -1.634189948779188E+08, 4.510254591088507E+08, 5.992384508674848E+07,
2460448.500000000, A.D. 2024-May-18 00:00:00.0000, -1.725194620978807E+08, 4.481958730194342E+08, 6.142332765731725E+07,
2460455.500000000, A.D. 2024-May-25 00:00:00.0000, -1.815460762758012E+08, 4.451745580677612E+08, 6.289652596726868E+07,
2460462.500000000, A.D. 2024-Jun-01 00:00:00.0000, -1.904953146338302E+08, 4.419636307001851E+08, 6.434292650022265E+07,
2460469.500000000, A.D. 2024-Jun-08 00:00:00.0000, -1.993637100400434E+08, 4.385652522177322E+08, 6.576202902209648E+07,
2460476.500000000, A.D. 2024-Jun-15 00:00:00.0000, -2.081478497378640E+08, 4.349816275111358E+08, 6.715334634469768E+07,
2460483.500000000, A.D. 2024-Jun-22 00:00:00.0000, -2.168443743831609E+08, 4.312150054059721E+08, 6.851640424784181E+07,
2460490.500000000, A.D. 2024-Jun-29 00:00:00.0000, -2.254499795115232E+08, 4.272676787970897E+08, 6.985074160634720E+07,
2460497.500000000, A.D. 2024-Jul-06 00:00:00.0000, -2.339614167902826E+08, 4.231419820977952E+08, 7.115591027721733E+07,
2460504.500000000, A.D. 2024-Jul-13 00:00:00.0000, -2.423754931084840E+08, 4.188402888237243E+08, 7.243147479894966E+07,
2460511.500000000, A.D. 2024-Jul-20 00:00:00.0000, -2.506890694940853E+08, 4.143650104589990E+08, 7.367701217940152E+07,
2460518.500000000, A.D. 2024-Jul-27 00:00:00.0000, -2.588990605169656E+08, 4.097185956444279E+08, 7.489211175436023E+07,
2460525.500000000, A.D. 2024-Aug-03 00:00:00.0000, -2.670024339073688E+08, 4.049035293119941E+08, 7.607637506155613E+07,
2460532.500000000, A.D. 2024-Aug-10 00:00:00.0000, -2.749962102263195E+08, 3.999223317610882E+08, 7.722941571498136E+07,
2460539.500000000, A.D. 2024-Aug-17 00:00:00.0000, -2.828774625423065E+08, 3.947775576983119E+08, 7.835085927722152E+07,
2460546.500000000, A.D. 2024-Aug-24 00:00:00.0000, -2.906433160874808E+08, 3.894717952183031E+08, 7.944034312546213E+07,
2460553.500000000, A.D. 2024-Aug-31 00:00:00.0000, -2.982909477786219E+08, 3.840076646632670E+08, 8.049751629539891E+07,
2460560.500000000, A.D. 2024-Sep-07 00:00:00.0000, -3.058175852383031E+08, 3.783878174862996E+08, 8.152203927962239E+07,
2460567.500000000, A.D. 2024-Sep-14 00:00:00.0000, -3.132205052323612E+08, 3.726149361129539E+08, 8.251358385386214E+07,
2460574.500000000, A.D. 2024-Sep-21 00:00:00.0000, -3.204970335544451E+08, 3.666917352129934E+08, 8.347183315095435E+07,
2460581.500000000, A.D. 2024-Sep-28 00:00:00.0000, -3.276445468458880E+08, 3.606209611545525E+08, 8.439648176350529E+07,
2460588.500000000, A.D. 2024-Oct-05 00:00:00.0000, -3.346604726805913E+08, 3.544053896399170E+08, 8.528723553832656E+07,
2460595.500000000, A.D. 2024-Oct-12 00:00:00.0000, -3.415422882772738E+08, 3.480478245004235E+08, 8.614381133912691E+07,
2460602.500000000, A.D. 2024-Oct-19 00:00:00.0000, -3.482875195923424E+08, 3.415510973794759E+08, 8.696593691630058E+07,
2460609.500000000, A.D. 2024-Oct-26 00:00:00.0000, -3.548937408265647E+08, 3.349180675020148E+08, 8.775335082146516E+07,
2460616.500000000, A.D. 2024-Nov-02 00:00:00.0000, -3.613585740886523E+08, 3.281516213810102E+08, 8.850580233104967E+07,
2460623.500000000, A.D. 2024-Nov-09 00:00:00.0000, -3.676796891197921E+08, 3.212546724805593E+08, 8.922305137182762E+07,
2460630.500000000, A.D. 2024-Nov-16 00:00:00.0000, -3.738548030539284E+08, 3.142301608348659E+08, 8.990486844615391E+07,
2460637.500000000, A.D. 2024-Nov-23 00:00:00.0000, -3.798816801675444E+08, 3.070810525722800E+08, 9.055103454865618E+07,
2460644.500000000, A.D. 2024-Nov-30 00:00:00.0000, -3.857581314112559E+08, 2.998103393007815E+08, 9.116134105192134E+07,
2460651.500000000, A.D. 2024-Dec-07 00:00:00.0000, -3.914820133043637E+08, 2.924210377743871E+08, 9.173558955720425E+07,
2460658.500000000, A.D. 2024-Dec-14 00:00:00.0000, -3.970512268820173E+08, 2.849161910632398E+08, 9.227359187355898E+07,
2460665.500000000, A.D. 2024-Dec-21 00:00:00.0000, -4.024637190152969E+08, 2.772988699861974E+08, 9.277517023716480E+07,
2460672.500000000, A.D. 2024-Dec-28 00:00:00.0000, -4.077174841321110E+08, 2.695721718386742E+08, 9.324015734781462E+07,
2460679.500000000, A.D. 2025-Jan-04 00:00:00.0000, -4.128105637406358E+08, 2.617392187899836E+08, 9.366839617837395E+07,
2460686.500000000, A.D. 2025-Jan-11 00:00:00.0000, -4.177410455777021E+08, 2.538031576077462E+08, 9.405973986012746E+07,
2460693.500000000, A.D. 2025-Jan-18 00:00:00.0000, -4.225070633009905E+08, 2.457671597900788E+08, 9.441405165372269E+07,
2460700.500000000, A.D. 2025-Jan-25 00:00:00.0000, -4.271067964823225E+08, 2.376344216307244E+08, 9.473120494512673E+07,
2460707.500000000, A.D. 2025-Feb-01 00:00:00.0000, -4.315384707128924E+08, 2.294081641861936E+08, 9.501108324711546E+07,
2460714.500000000, A.D. 2025-Feb-08 00:00:00.0000, -4.358003577624460E+08, 2.210916331636757E+08, 9.525358020285717E+07,
2460721.500000000, A.D. 2025-Feb-15 00:00:00.0000, -4.398907757639696E+08, 2.126880987089055E+08, 9.545859958755273E+07,
$$EOE